start=new Date('2021-12-12T00:00:00.000Z').valueOf();
sats=[{"OBJECT_ID":"2021-012AA","CENTER_NAME":"EARTH","MEAN_MOTION":"15.06404518","ELEMENT_SET_NO":"999","SEMIMAJOR_AXIS":"6925.335","APOAPSIS":"548.794","DECAY_DATE":null,"MEAN_ANOMALY":"276.3745","OBJECT_TYPE":"PAYLOAD","COUNTRY_CODE":"US","NORAD_CAT_ID":"47644","CLASSIFICATION_TYPE":"U","RA_OF_ASC_NODE":"185.3169","LAUNCH_DATE":"2021-02-16","SITE":"AFETR","BSTAR":"0.00003852900000","MEAN_ELEMENT_THEORY":"SGP4","TIME_SYSTEM":"UTC","ECCENTRICITY":"0.00023020","TLE_LINE2":"2 47644  53.0535 185.3169 0002302  83.7506 276.3745 15.06404518 46522","MEAN_MOTION_DOT":"0.00000292","REV_AT_EPOCH":"4652","GP_ID":"191522119","FILE":"3237650","EPHEMERIS_TYPE":"0","EPOCH":"2021-12-11T16:44:42.950112","TLE_LINE1":"1 47644U 21012AA  21345.69771933  .00000292  00000-0  38529-4 0  9995","REF_FRAME":"TEME","MEAN_MOTION_DDOT":"0.0000000000000","PERIOD":"95.592","INCLINATION":"53.0535","RCS_SIZE":"LARGE","ARG_OF_PERICENTER":"83.7506","PERIAPSIS":"545.605","OBJECT_NAME":"STARLINK-2026"},{"MEAN_ANOMALY":"259.4649","DECAY_DATE":null,"APOAPSIS":"552.230","SEMIMAJOR_AXIS":"6925.363","MEAN_MOTION":"15.06395451","ELEMENT_SET_NO":"999","OBJECT_ID":"2021-012AB","CENTER_NAME":"EARTH","SITE":"AFETR","LAUNCH_DATE":"2021-02-16","RA_OF_ASC_NODE":"154.4212","CLASSIFICATION_TYPE":"U","NORAD_CAT_ID":"47645","COUNTRY_CODE":"US","OBJECT_TYPE":"PAYLOAD","EPOCH":"2021-12-11T21:28:41.692800","FILE":"3237650","EPHEMERIS_TYPE":"0","GP_ID":"191522378","REV_AT_EPOCH":"4694","MEAN_MOTION_DOT":"0.00000050","TLE_LINE2":"2 47645  53.0538 154.4212 0007224 100.7154 259.4649 15.06395451 46945","ECCENTRICITY":"0.00072240","TIME_SYSTEM":"UTC","BSTAR":"0.00002239300000","MEAN_ELEMENT_THEORY":"SGP4","OBJECT_NAME":"STARLINK-2027","PERIAPSIS":"542.225","ARG_OF_PERICENTER":"100.7154","RCS_SIZE":"LARGE","INCLINATION":"53.0538","PERIOD":"95.592","MEAN_MOTION_DDOT":"0.0000000000000","REF_FRAME":"TEME","TLE_LINE1":"1 47645U 21012AB  21345.89492700  .00000050  00000-0  22393-4 0  9994"},{"RA_OF_ASC_NODE":"119.1881","CLASSIFICATION_TYPE":"U","SITE":"AFETR","LAUNCH_DATE":"2021-02-16","COUNTRY_CODE":"US","OBJECT_TYPE":"PAYLOAD","NORAD_CAT_ID":"47646","SEMIMAJOR_AXIS":"6925.335","DECAY_DATE":null,"APOAPSIS":"548.053","MEAN_ANOMALY":"264.1975","OBJECT_ID":"2021-012AC","CENTER_NAME":"EARTH","ELEMENT_SET_NO":"999","MEAN_MOTION":"15.06404560","INCLINATION":"53.0557","ARG_OF_PERICENTER":"95.9155","RCS_SIZE":"LARGE","PERIAPSIS":"546.346","OBJECT_NAME":"STARLINK-2028","TLE_LINE1":"1 47646U 21012AC  21345.94787663  .00000922  00000-0  80783-4 0  9991","REF_FRAME":"TEME","PERIOD":"95.592","MEAN_MOTION_DDOT":"0.0000000000000","GP_ID":"191523121","EPOCH":"2021-12-11T22:44:56.540832","EPHEMERIS_TYPE":"0","FILE":"3237650","TIME_SYSTEM":"UTC","MEAN_ELEMENT_THEORY":"SGP4","BSTAR":"0.00008078300000","TLE_LINE2":"2 47646  53.0557 119.1881 0001232  95.9155 264.1975 15.06404560 47449","ECCENTRICITY":"0.00012320","MEAN_MOTION_DOT":"0.00000922","REV_AT_EPOCH":"4744"},{"NORAD_CAT_ID":"47647","OBJECT_TYPE":"PAYLOAD","COUNTRY_CODE":"US","LAUNCH_DATE":"2021-02-16","SITE":"AFETR","CLASSIFICATION_TYPE":"U","RA_OF_ASC_NODE":"184.3734","OBJECT_ID":"2021-012AD","CENTER_NAME":"EARTH","ELEMENT_SET_NO":"999","MEAN_MOTION":"15.06402177","MEAN_ANOMALY":"275.5114","SEMIMAJOR_AXIS":"6925.342","APOAPSIS":"548.779","DECAY_DATE":null,"REF_FRAME":"TEME","MEAN_MOTION_DDOT":"0.0000000000000","PERIOD":"95.592","TLE_LINE1":"1 47647U 21012AD  21345.90782377  .00000277  00000-0  37480-4 0  9994","PERIAPSIS":"545.635","OBJECT_NAME":"STARLINK-2030","INCLINATION":"53.0545","RCS_SIZE":"LARGE","ARG_OF_PERICENTER":"84.6134","MEAN_MOTION_DOT":"0.00000277","REV_AT_EPOCH":"4655","MEAN_ELEMENT_THEORY":"SGP4","BSTAR":"0.00003748000000","TIME_SYSTEM":"UTC","ECCENTRICITY":"0.00022700","TLE_LINE2":"2 47647  53.0545 184.3734 0002270  84.6134 275.5114 15.06402177 46557","FILE":"3237650","EPHEMERIS_TYPE":"0","EPOCH":"2021-12-11T21:47:15.973728","GP_ID":"191521377"},{"NORAD_CAT_ID":"47648","OBJECT_TYPE":"PAYLOAD","COUNTRY_CODE":"US","LAUNCH_DATE":"2021-02-16","SITE":"AFETR","CLASSIFICATION_TYPE":"U","RA_OF_ASC_NODE":"164.4096","ELEMENT_SET_NO":"999","MEAN_MOTION":"15.06401684","OBJECT_ID":"2021-012AE","CENTER_NAME":"EARTH","MEAN_ANOMALY":"277.0329","APOAPSIS":"548.659","DECAY_DATE":null,"SEMIMAJOR_AXIS":"6925.343","MEAN_MOTION_DDOT":"0.0000000000000","PERIOD":"95.592","REF_FRAME":"TEME","TLE_LINE1":"1 47648U 21012AE  21345.89860565  .00000150  00000-0  28953-4 0  9994","OBJECT_NAME":"STARLINK-2031","PERIAPSIS":"545.758","RCS_SIZE":"MEDIUM","ARG_OF_PERICENTER":"83.0898","INCLINATION":"53.0549","REV_AT_EPOCH":"4683","MEAN_MOTION_DOT":"0.00000150","ECCENTRICITY":"0.00020940","TLE_LINE2":"2 47648  53.0549 164.4096 0002094  83.0898 277.0329 15.06401684 46834","MEAN_ELEMENT_THEORY":"SGP4","BSTAR":"0.00002895300000","TIME_SYSTEM":"UTC","EPHEMERIS_TYPE":"0","FILE":"3237650","EPOCH":"2021-12-11T21:33:59.528160","GP_ID":"191521627"},{"CENTER_NAME":"EARTH","OBJECT_ID":"2021-012AF","MEAN_MOTION":"15.06402016","ELEMENT_SET_NO":"999","MEAN_ANOMALY":"276.2381","SEMIMAJOR_AXIS":"6925.342","DECAY_DATE":null,"APOAPSIS":"548.955","NORAD_CAT_ID":"47649","COUNTRY_CODE":"US","OBJECT_TYPE":"PAYLOAD","SITE":"AFETR","LAUNCH_DATE":"2021-02-16","RA_OF_ASC_NODE":"164.3993","CLASSIFICATION_TYPE":"U","MEAN_MOTION_DOT":"0.00000404","REV_AT_EPOCH":"4683","TIME_SYSTEM":"UTC","BSTAR":"0.00004607800000","MEAN_ELEMENT_THEORY":"SGP4","TLE_LINE2":"2 47649  53.0536 164.3993 0002524  83.8896 276.2381 15.06402016 46839","ECCENTRICITY":"0.00025240","EPOCH":"2021-12-11T21:39:17.889696","FILE":"3237650","EPHEMERIS_TYPE":"0","GP_ID":"191522871","REF_FRAME":"TEME","PERIOD":"95.592","MEAN_MOTION_DDOT":"0.0000000000000","TLE_LINE1":"1 47649U 21012AF  21345.90229039  .00000404  00000-0  46078-4 0  9992","PERIAPSIS":"545.459","OBJECT_NAME":"STARLINK-2032","INCLINATION":"53.0536","ARG_OF_PERICENTER":"83.8896","RCS_SIZE":"LARGE"},{"CLASSIFICATION_TYPE":"U","RA_OF_ASC_NODE":"164.4671","LAUNCH_DATE":"2021-02-16","SITE":"AFETR","OBJECT_TYPE":"PAYLOAD","COUNTRY_CODE":"US","NORAD_CAT_ID":"47650","APOAPSIS":"548.817","DECAY_DATE":null,"SEMIMAJOR_AXIS":"6925.410","MEAN_ANOMALY":"274.8022","ELEMENT_SET_NO":"999","MEAN_MOTION":"15.06380043","OBJECT_ID":"2021-012AG","CENTER_NAME":"EARTH","RCS_SIZE":"LARGE","ARG_OF_PERICENTER":"85.3221","INCLINATION":"53.0536","OBJECT_NAME":"STARLINK-2033","PERIAPSIS":"545.732","TLE_LINE1":"1 47650U 21012AG  21345.88756741  .00000350  00000-0  42424-4 0  9997","MEAN_MOTION_DDOT":"0.0000000000000","PERIOD":"95.593","REF_FRAME":"TEME","GP_ID":"191522629","EPHEMERIS_TYPE":"0","FILE":"3237650","EPOCH":"2021-12-11T21:18:05.824224","ECCENTRICITY":"0.00022270","TLE_LINE2":"2 47650  53.0536 164.4671 0002227  85.3221 274.8022 15.06380043 46813","BSTAR":"0.00004242400000","MEAN_ELEMENT_THEORY":"SGP4","TIME_SYSTEM":"UTC","REV_AT_EPOCH":"4681","MEAN_MOTION_DOT":"0.00000350"},{"MEAN_ANOMALY":"278.6640","SEMIMAJOR_AXIS":"6925.392","DECAY_DATE":null,"APOAPSIS":"549.071","OBJECT_ID":"2021-012AH","CENTER_NAME":"EARTH","MEAN_MOTION":"15.06385968","ELEMENT_SET_NO":"999","SITE":"AFETR","LAUNCH_DATE":"2021-02-16","RA_OF_ASC_NODE":"184.6134","CLASSIFICATION_TYPE":"U","NORAD_CAT_ID":"47651","COUNTRY_CODE":"US","OBJECT_TYPE":"PAYLOAD","EPOCH":"2021-12-11T20:31:36.512544","EPHEMERIS_TYPE":"0","FILE":"3237650","GP_ID":"191521870","MEAN_MOTION_DOT":"0.00000685","REV_AT_EPOCH":"4654","TIME_SYSTEM":"UTC","MEAN_ELEMENT_THEORY":"SGP4","BSTAR":"0.00006495000000","TLE_LINE2":"2 47651  53.0538 184.6134 0002620  81.4646 278.6640 15.06385968 46548","ECCENTRICITY":"0.00026200","PERIAPSIS":"545.442","OBJECT_NAME":"STARLINK-2035","INCLINATION":"53.0538","ARG_OF_PERICENTER":"81.4646","RCS_SIZE":"LARGE","REF_FRAME":"TEME","PERIOD":"95.593","MEAN_MOTION_DDOT":"0.0000000000000","TLE_LINE1":"1 47651U 21012AH  21345.85528371  .00000685  00000-0  64950-4 0  9990"},{"OBJECT_ID":"2021-012AJ","CENTER_NAME":"EARTH","ELEMENT_SET_NO":"999","MEAN_MOTION":"15.06395403","SEMIMAJOR_AXIS":"6925.363","APOAPSIS":"548.756","DECAY_DATE":null,"MEAN_ANOMALY":"279.4591","OBJECT_TYPE":"PAYLOAD","COUNTRY_CODE":"US","NORAD_CAT_ID":"47652","CLASSIFICATION_TYPE":"U","RA_OF_ASC_NODE":"184.7852","LAUNCH_DATE":"2021-02-16","SITE":"AFETR","BSTAR":"0.00004786900000","MEAN_ELEMENT_THEORY":"SGP4","TIME_SYSTEM":"UTC","ECCENTRICITY":"0.00022070","TLE_LINE2":"2 47652  53.0543 184.7852 0002207  80.6648 279.4591 15.06395403 46535","REV_AT_EPOCH":"4653","MEAN_MOTION_DOT":"0.00000431","GP_ID":"191522120","EPHEMERIS_TYPE":"0","FILE":"3237650","EPOCH":"2021-12-11T19:34:34.989600","TLE_LINE1":"1 47652U 21012AJ  21345.81568275  .00000431  00000-0  47869-4 0  9993","REF_FRAME":"TEME","MEAN_MOTION_DDOT":"0.0000000000000","PERIOD":"95.592","INCLINATION":"53.0543","RCS_SIZE":"LARGE","ARG_OF_PERICENTER":"80.6648","PERIAPSIS":"545.699","OBJECT_NAME":"STARLINK-2036"},{"MEAN_MOTION":"15.06388732","ELEMENT_SET_NO":"999","CENTER_NAME":"EARTH","OBJECT_ID":"2021-012AK","MEAN_ANOMALY":"275.4211","APOAPSIS":"548.740","DECAY_DATE":null,"SEMIMAJOR_AXIS":"6925.383","NORAD_CAT_ID":"47653","OBJECT_TYPE":"PAYLOAD","COUNTRY_CODE":"US","LAUNCH_DATE":"2021-02-16","SITE":"AFETR","CLASSIFICATION_TYPE":"U","RA_OF_ASC_NODE":"164.5040","MEAN_MOTION_DOT":"0.00000345","REV_AT_EPOCH":"4681","ECCENTRICITY":"0.00021540","TLE_LINE2":"2 47653  53.0539 164.5040 0002154  84.7023 275.4211 15.06388732 46812","MEAN_ELEMENT_THEORY":"SGP4","BSTAR":"0.00004209500000","TIME_SYSTEM":"UTC","EPHEMERIS_TYPE":"0","FILE":"3237650","EPOCH":"2021-12-11T21:02:11.409216","GP_ID":"191522379","MEAN_MOTION_DDOT":"0.0000000000000","PERIOD":"95.593","REF_FRAME":"TEME","TLE_LINE1":"1 47653U 21012AK  21345.87652094  .00000345  00000-0  42095-4 0  9993","OBJECT_NAME":"STARLINK-2037","PERIAPSIS":"545.756","RCS_SIZE":"LARGE","ARG_OF_PERICENTER":"84.7023","INCLINATION":"53.0539"}];
